{"type": "FeatureCollection", "features": [ {"type": "Feature", "properties": {"norad_id": 67101, "name": "STARLINK-36200", "group": "last-30-days", "lat": 13.5895533426641, "lon": -134.0786573464823, "alt_km": 306.02873554925645, "timestamp": "2025-12-22T23:36:19.414307+00:00", "meta": {"OBJECT_NAME": "STARLINK-36200", "OBJECT_ID": "2025-298AC", "EPOCH": "2025-12-22T14:00:01.999872", "MEAN_MOTION": 15.90075618, "ECCENTRICITY": 0.00038507, "INCLINATION": 69.997, "RA_OF_ASC_NODE": 222.0271, "ARG_OF_PERICENTER": 259.9048, "MEAN_ANOMALY": 345.0981, "EPHEMERIS_TYPE": 0, "CLASSIFICATION_TYPE": "U", "NORAD_CAT_ID": 67101, "ELEMENT_SET_NO": 999, "REV_AT_EPOCH": 256, "BSTAR": -0.0035218726, "MEAN_MOTION_DOT": -0.01059286, "MEAN_MOTION_DDOT": 0.00032981341}, "tle": {"line1": "1 67101U 25298AC  25356.58335648 -.01059286  32981-3 -35219-2 0  9995", "line2": "2 67101  69.9970 222.0271 0003850 259.9048 345.0981 15.90075618  2561"}}, "geometry": {"type": "Point", "coordinates": [-134.0786573464823, 13.5895533426641]}}, {"type": "Feature", "properties": {"norad_id": 67102, "name": "STARLINK-36255", "group": "last-30-days", "lat": -12.803768354872558, "lon": 88.13315850405077, "alt_km": 295.56481508254456, "timestamp": "2025-12-22T23:36:19.414317+00:00", "meta": {"OBJECT_NAME": "STARLINK-36255", "OBJECT_ID": "2025-299A", "EPOCH": "2025-12-22T14:00:01.999872", "MEAN_MOTION": 15.93987394, "ECCENTRICITY": 0.00017383, "INCLINATION": 42.9985, "RA_OF_ASC_NODE": 256.511, "ARG_OF_PERICENTER": 267.6684, "MEAN_ANOMALY": 152.8428, "EPHEMERIS_TYPE": 0, "CLASSIFICATION_TYPE": "U", "NORAD_CAT_ID": 67102, "ELEMENT_SET_NO": 999, "REV_AT_EPOCH": 239, "BSTAR": -0.0044390308, "MEAN_MOTION_DOT": -0.01687507, "MEAN_MOTION_DDOT": 0.00080372382}, "tle": {"line1": "1 67102U 25299A   25356.58335648 -.01687507  80372-3 -44390-2 0  9997", "line2": "2 67102  42.9985 256.5110 0001738 267.6684 152.8428 15.93987394  2395"}}, "geometry": {"type": "Point", "coordinates": [88.13315850405077, -12.803768354872558]}}, {"type": "Feature", "properties": {"norad_id": 67103, "name": "STARLINK-36256", "group": "last-30-days", "lat": -13.570380752981917, "lon": 89.02706162495768, "alt_km": 295.73349502725887, "timestamp": "2025-12-22T23:36:19.414327+00:00", "meta": {"OBJECT_NAME": "STARLINK-36256", "OBJECT_ID": "2025-299B", "EPOCH": "2025-12-22T14:00:01.999872", "MEAN_MOTION": 15.94132409, "ECCENTRICITY": 0.00019785, "INCLINATION": 42.9984, "RA_OF_ASC_NODE": 256.5083, "ARG_OF_PERICENTER": 272.2005, "MEAN_ANOMALY": 149.3892, "EPHEMERIS_TYPE": 0, "CLASSIFICATION_TYPE": "U", "NORAD_CAT_ID": 67103, "ELEMENT_SET_NO": 999, "REV_AT_EPOCH": 239, "BSTAR": -0.0049802838, "MEAN_MOTION_DOT": -0.01905019, "MEAN_MOTION_DDOT": 0.001007891}, "tle": {"line1": "1 67103U 25299B   25356.58335648 -.01905019  10079-2 -49803-2 0  9999", "line2": "2 67103  42.9984 256.5083 0001978 272.2005 149.3892 15.94132409  2395"}}, "geometry": {"type": "Point", "coordinates": [89.02706162495768, -13.570380752981917]}}, {"type": "Feature", "properties": {"norad_id": 67104, "name": "STARLINK-36258", "group": "last-30-days", "lat": -14.446408316992953, "lon": 90.06038095949593, "alt_km": 295.37078914896756, "timestamp": "2025-12-22T23:36:19.414339+00:00", "meta": {"OBJECT_NAME": "STARLINK-36258", "OBJECT_ID": "2025-299C", "EPOCH": "2025-12-22T14:00:01.999872", "MEAN_MOTION": 15.94052284, "ECCENTRICITY": 0.00025666, "INCLINATION": 42.9982, "RA_OF_ASC_NODE": 256.5049, "ARG_OF_PERICENTER": 267.6981, "MEAN_ANOMALY": 155.2473, "EPHEMERIS_TYPE": 0, "CLASSIFICATION_TYPE": "U", "NORAD_CAT_ID": 67104, "ELEMENT_SET_NO": 999, "REV_AT_EPOCH": 239, "BSTAR": -0.0045278749, "MEAN_MOTION_DOT": -0.01727033, "MEAN_MOTION_DDOT": 0.00083940537}, "tle": {"line1": "1 67104U 25299C   25356.58335648 -.01727033  83941-3 -45279-2 0  9990", "line2": "2 67104  42.9982 256.5049 0002566 267.6981 155.2473 15.94052284  2394"}}, "geometry": {"type": "Point", "coordinates": [90.06038095949593, -14.446408316992953]}}, {"type": "Feature", "properties": {"norad_id": 67105, "name": "STARLINK-36261", "group": "last-30-days", "lat": -15.143004449003794, "lon": 90.89181809993234, "alt_km": 295.3180550678808, "timestamp": "2025-12-22T23:36:19.414349+00:00", "meta": {"OBJECT_NAME": "STARLINK-36261", "OBJECT_ID": "2025-299D", "EPOCH": "2025-12-22T14:00:01.999872", "MEAN_MOTION": 15.94077946, "ECCENTRICITY": 0.00023061, "INCLINATION": 42.9983, "RA_OF_ASC_NODE": 256.5025, "ARG_OF_PERICENTER": 265.1599, "MEAN_ANOMALY": 158.8106, "EPHEMERIS_TYPE": 0, "CLASSIFICATION_TYPE": "U", "NORAD_CAT_ID": 67105, "ELEMENT_SET_NO": 999, "REV_AT_EPOCH": 239, "BSTAR": -0.0045213353, "MEAN_MOTION_DOT": -0.01726792, "MEAN_MOTION_DDOT": 0.00083940581}, "tle": {"line1": "1 67105U 25299D   25356.58335648 -.01726792  83941-3 -45213-2 0  9990", "line2": "2 67105  42.9983 256.5025 0002306 265.1599 158.8106 15.94077946  2394"}}, "geometry": {"type": "Point", "coordinates": [90.89181809993234, -15.143004449003794]}}, {"type": "Feature", "properties": {"norad_id": 67106, "name": "STARLINK-36259", "group": "last-30-days", "lat": -17.18108487107418, "lon": 93.3795160520235, "alt_km": 295.41630544857617, "timestamp": "2025-12-22T23:36:19.414360+00:00", "meta": {"OBJECT_NAME": "STARLINK-36259", "OBJECT_ID": "2025-299E", "EPOCH": "2025-12-22T14:00:01.999872", "MEAN_MOTION": 15.94093763, "ECCENTRICITY": 0.00021173, "INCLINATION": 42.9982, "RA_OF_ASC_NODE": 256.4947, "ARG_OF_PERICENTER": 262.9906, "MEAN_ANOMALY": 164.1128, "EPHEMERIS_TYPE": 0, "CLASSIFICATION_TYPE": "U", "NORAD_CAT_ID": 67106, "ELEMENT_SET_NO": 999, "REV_AT_EPOCH": 239, "BSTAR": -0.0045709265, "MEAN_MOTION_DOT": -0.01746867, "MEAN_MOTION_DDOT": 0.00085768826}, "tle": {"line1": "1 67106U 25299E   25356.58335648 -.01746867  85769-3 -45709-2 0  9996", "line2": "2 67106  42.9982 256.4947 0002117 262.9906 164.1128 15.94093763  2392"}}, "geometry": {"type": "Point", "coordinates": [93.3795160520235, -17.18108487107418]}}, {"type": "Feature", "properties": {"norad_id": 67107, "name": "STARLINK-36196", "group": "last-30-days", "lat": -16.097253499428763, "lon": 92.04568685951892, "alt_km": 295.34286240647634, "timestamp": "2025-12-22T23:36:19.414372+00:00", "meta": {"OBJECT_NAME": "STARLINK-36196", "OBJECT_ID": "2025-299F", "EPOCH": "2025-12-22T14:00:01.999872", "MEAN_MOTION": 15.94093132, "ECCENTRICITY": 0.00019543, "INCLINATION": 42.9984, "RA_OF_ASC_NODE": 256.4989, "ARG_OF_PERICENTER": 261.8297, "MEAN_ANOMALY": 163.5826, "EPHEMERIS_TYPE": 0, "CLASSIFICATION_TYPE": "U", "NORAD_CAT_ID": 67107, "ELEMENT_SET_NO": 999, "REV_AT_EPOCH": 239, "BSTAR": -0.0045205466, "MEAN_MOTION_DOT": -0.01727746, "MEAN_MOTION_DDOT": 0.00084039308}, "tle": {"line1": "1 67107U 25299F   25356.58335648 -.01727746  84039-3 -45205-2 0  9992", "line2": "2 67107  42.9984 256.4989 0001954 261.8297 163.5826 15.94093132  2398"}}, "geometry": {"type": "Point", "coordinates": [92.04568685951892, -16.097253499428763]}}, {"type": "Feature", "properties": {"norad_id": 67108, "name": "STARLINK-36208", "group": "last-30-days", "lat": -18.23471320058972, "lon": 94.701539193753, "alt_km": 295.5096993981597, "timestamp": "2025-12-22T23:36:19.414384+00:00", "meta": {"OBJECT_NAME": "STARLINK-36208", "OBJECT_ID": "2025-299G", "EPOCH": "2025-12-22T14:00:01.999872", "MEAN_MOTION": 15.94082659, "ECCENTRICITY": 0.00020929, "INCLINATION": 42.9985, "RA_OF_ASC_NODE": 256.4905, "ARG_OF_PERICENTER": 267.0292, "MEAN_ANOMALY": 161.7049, "EPHEMERIS_TYPE": 0, "CLASSIFICATION_TYPE": "U", "NORAD_CAT_ID": 67108, "ELEMENT_SET_NO": 999, "REV_AT_EPOCH": 239, "BSTAR": -0.0044233491, "MEAN_MOTION_DOT": -0.01690185, "MEAN_MOTION_DDOT": 0.00080685064}, "tle": {"line1": "1 67108U 25299G   25356.58335648 -.01690185  80685-3 -44233-2 0  9992", "line2": "2 67108  42.9985 256.4905 0002092 267.0292 161.7049 15.94082659  2394"}}, "geometry": {"type": "Point", "coordinates": [94.701539193753, -18.23471320058972]}}, {"type": "Feature", "properties": {"norad_id": 67109, "name": "STARLINK-35764", "group": "last-30-days", "lat": -19.396920757584585, "lon": 96.19261041443873, "alt_km": 295.76702534941796, "timestamp": "2025-12-22T23:36:19.414393+00:00", "meta": {"OBJECT_NAME": "STARLINK-35764", "OBJECT_ID": "2025-299H", "EPOCH": "2025-12-22T14:00:01.999872", "MEAN_MOTION": 15.9407586, "ECCENTRICITY": 0.00017434, "INCLINATION": 42.9985, "RA_OF_ASC_NODE": 256.4857, "ARG_OF_PERICENTER": 271.0503, "MEAN_ANOMALY": 159.5142, "EPHEMERIS_TYPE": 0, "CLASSIFICATION_TYPE": "U", "NORAD_CAT_ID": 67109, "ELEMENT_SET_NO": 999, "REV_AT_EPOCH": 228, "BSTAR": -0.0043815686, "MEAN_MOTION_DOT": -0.01673712, "MEAN_MOTION_DDOT": 0.00079233656}, "tle": {"line1": "1 67109U 25299H   25356.58335648 -.01673712  79234-3 -43816-2 0  9994", "line2": "2 67109  42.9985 256.4857 0001743 271.0503 159.5142 15.94075860  2286"}}, "geometry": {"type": "Point", "coordinates": [96.19261041443873, -19.396920757584585]}}, {"type": "Feature", "properties": {"norad_id": 67110, "name": "STARLINK-35781", "group": "last-30-days", "lat": -21.577712777945607, "lon": 99.09660582368905, "alt_km": 295.6898810193961, "timestamp": "2025-12-22T23:36:19.414403+00:00", "meta": {"OBJECT_NAME": "STARLINK-35781", "OBJECT_ID": "2025-299J", "EPOCH": "2025-12-22T14:00:01.999872", "MEAN_MOTION": 15.94000866, "ECCENTRICITY": 0.00022842, "INCLINATION": 42.9984, "RA_OF_ASC_NODE": 256.4767, "ARG_OF_PERICENTER": 269.3327, "MEAN_ANOMALY": 164.7935, "EPHEMERIS_TYPE": 0, "CLASSIFICATION_TYPE": "U", "NORAD_CAT_ID": 67110, "ELEMENT_SET_NO": 999, "REV_AT_EPOCH": 234, "BSTAR": -0.0041794053, "MEAN_MOTION_DOT": -0.01591327, "MEAN_MOTION_DDOT": 0.0007213988}, "tle": {"line1": "1 67110U 25299J   25356.58335648 -.01591327  72140-3 -41794-2 0  9999", "line2": "2 67110  42.9984 256.4767 0002284 269.3327 164.7935 15.94000866  2341"}}, "geometry": {"type": "Point", "coordinates": [99.09660582368905, -21.577712777945607]}}]}